Company category,Company name,CEO,Corporate registration number,Business registration number,Address,Contact point,Latitude,Longitude
건어물 및 젓갈류 도매업,(주)반찬단지 정보 더보기,우성명,120111-0679649,137-86-39932,인천광역시 서구 건지로 95,032-574-8930,37.5,126.66
건어물 및 젓갈류 도매업,세화상사 주식회사,김점숙,171711-0111721,506-81-88731,경상북도 포항시 북구 죽도시장7,010-9173-4213,36.17,129.23
건어물 및 젓갈류 도매업,어업회사법인주식회사조혜정의멸치연구소,조혜정,195411-0026233,613-81-73569,경상남도 사천시 청송길 59,7077575440,34.93,128.11
건어물 및 젓갈류 도매업,코아사코리아 주식회사,시라하 카즈야스,110111-6623105,247-86-01150,서울특별시 중구 소월로 8,02-778-0012,37.56,126.98
"신선, 냉동 및 기타 수산물 도매업",(주)가토코,이성빈,110111-3275321,206-86-00937,서울특별시 서초구 방배중앙로 30,02-498-8011,37.48,126.99
"신선, 냉동 및 기타 수산물 도매업",(주)강남수산,허세범,180111-0392059,603-81-48710,부산광역시 서구 충무대로 181,051-253-3744,35.09,129.02
"신선, 냉동 및 기타 수산물 도매업",(주)강동유통 정보 더보기,한병수,201311-0052843,416-81-91059,전라남도 광양시 항만9,02-574-1110,34.96,127.72
"신선, 냉동 및 기타 수산물 도매업",주식회사 관우물산,김영완,284211-0041302,132-81-57774,서울특별시 송파구 양재대로 932 12,02-2043-7731,37.49,127.11
"신선, 냉동 및 기타 수산물 도매업",그린월드산업(주),공병구,180111-1460665,546-86-02788,부산광역시 동구 중앙대로 236,051-464-9495,35.12,129.04
"신선, 냉동 및 기타 수산물 도매업",(주)글로벌에스제이교역,김준형,180111-0655655,603-81-70473,부산광역시 사하구 원양로 379,051-243-0802,35.08,129.01
"신선, 냉동 및 기타 수산물 도매업",(주)남궁튜나,김민의,180111-0697467,603-81-73596,부산광역시 서구 원양로 90,070-8872-5891,35.06,129.01
"신선, 냉동 및 기타 수산물 도매업",남양무역주식회사,JIN XIANG SHU,191211-0014682,612-81-28213,경상남도 통영시 멘데해안길 147,1082388878,34.84,128.44
"신선, 냉동 및 기타 수산물 도매업",주식회사 노르코아쿠아월드,김석주,144711-0032368,597-88-02193,강원특별자치도 동해시 공단1,033-521-2770,37.49,129.11
"신선, 냉동 및 기타 수산물 도매업",대구신화수산(주),고중근,170111-0345399,504-81-74677,대구광역시 북구 매천로 63,053-313-8886,35.9,128.54
"신선, 냉동 및 기타 수산물 도매업",대림에이에프,안선주,110111-3528390,211-87-89192,서울특별시 강남구 선릉로 125,234486800,37.5,127.05
"신선, 냉동 및 기타 수산물 도매업",대방수산 주식회사,강정수,180111-0730811,603-81-75691,부산광역시 서구 암남공원로 218,051-714-5580,35.06,129.02
"신선, 냉동 및 기타 수산물 도매업",(주)대원물산,권순형,110111-6217354,276-87-00457,서울특별시 강남구 남부순환로 2913 별관,02-592-5058,37.49,127.06
"신선, 냉동 및 기타 수산물 도매업",(주)대지수산산업,배석진,110111-7044623,337-81-01405,서울특별시 성동구 아차산로 7,02-6336-4377,37.55,127.05
"신선, 냉동 및 기타 수산물 도매업",주식회사 더파이러츠,윤기홍,110111-6627769,116-86-00992,서울특별시 영등포구 선유로 146,02-2068-3241,37.53,126.89
"신선, 냉동 및 기타 수산물 도매업",(주)더한인터내셔날,전유진,180111-0941608,602-81-66675,경상남도 양산시 덕계11,055-365-1373,35.37,129.17
"신선, 냉동 및 기타 수산물 도매업",주식회사 디비코포레이션,김성준,180111-0952514,603-81-89934,부산광역시 서구 원양로 35,051-256-8811,35.06,129.01
"신선, 냉동 및 기타 수산물 도매업",( 주 ) 마린수산,백원흠,195511-0105514,615-81-61109,경기도 용인시 기흥구 신정로 252,031-261-3861,37.29,127.1
"신선, 냉동 및 기타 수산물 도매업",주식회사 마린스인터내셔날,이승준,144711-0021220,222-81-30011,강원도 동해시 중앙로 152 402,033-533-2511,37.52,129.12
"신선, 냉동 및 기타 수산물 도매업",마린트럼프인터내셔날(주),전용준,180111-0511617,605-81-70955,경기도 용인시 수지구 샘말로 56,031-261-4919,37.35,127.05
"신선, 냉동 및 기타 수산물 도매업",마하트레이딩 주식회사,박우용,180111-0568634,603-81-63405,부산광역시 서구 원양로 125,051-256-2465,35.06,129.01
"신선, 냉동 및 기타 수산물 도매업",주식회사 바다푸드,김영호,170111-0514077,504-86-10775,대구광역시 북구 고촌길 216 1090,053-326-6867,35.91,128.6
"신선, 냉동 및 기타 수산물 도매업",주식회사 바이킹마켓 정보 더보기,박제준,121111-0161190,130-86-29170,인천광역시 중구 공항동로 296,070-4496-1162,37.47,126.48
"신선, 냉동 및 기타 수산물 도매업",(주)밝은무역,이병철,180111-1007277,445-81-00288,부산광역시 서구 원양로 310,070-8877-0377,35.08,129.01
"신선, 냉동 및 기타 수산물 도매업",(주)보람코퍼레이션,강재천,180111-0373132,603-81-46667,부산광역시 서구 암남공원로 15,051-262-6084,35.07,129.02
"신선, 냉동 및 기타 수산물 도매업",(주)보물섬수산,이진규,160111-0375314,314-86-60328,대전광역시 유성구 계룡로 15,042-523-0355,36.36,127.33
"신선, 냉동 및 기타 수산물 도매업",주식회사 불루아이스,최호영,180111-1223542,887-87-01483,"부산광역시 서구 원양로 179 Binh Duong Province, Vietnam",517123300,35.07,129.01
"신선, 냉동 및 기타 수산물 도매업",산호상사 주식회사,최우열,110111-5174571,215-87-84447,경기도 하남시 미사강변한강로 135 다1023,3151750893,37.58,127.19
"신선, 냉동 및 기타 수산물 도매업",삼보수산 주식회사,안홍진,180111-0658873,603-81-70866,부산광역시 서구 원양로 35 회관동,051-256-9930,35.06,129.01
"신선, 냉동 및 기타 수산물 도매업",주식회사 생생무역,조기형,180111-0483759,603-81-56205,부산광역시 서구 원양로 105,512567411,35.06,129.01
"신선, 냉동 및 기타 수산물 도매업",(주) 성우마린,홍완식,110111-1528962,213-86-34677,서울특별시 강남구 광평로 280,02-3413-0755,37.49,127.1
"신선, 냉동 및 기타 수산물 도매업",주식회사 성화유통,장진성,121111-0180538,130-86-38908,인천광역시 계양구 서운산업로 50,326519355,37.53,126.76
"신선, 냉동 및 기타 수산물 도매업",(주)신진아이앤디,경철호,135711-0068306,126-86-13306,경기도 하남시 미사동로 37,031-792-4425,37.57,127.2
"신선, 냉동 및 기타 수산물 도매업",(주)신화유통,오충헌,120111-0633661,121-86-20914,인천광역시 중구 연안부두로 99,032-888-8045,37.45,126.6
"신선, 냉동 및 기타 수산물 도매업",아리스타씨푸드 주식회사,박기태,180111-1452109,351-88-02414,부산광역시 동구 중앙대로 233,051-469-7486,35.12,129.04
"신선, 냉동 및 기타 수산물 도매업",주식회사 아이씨인터네셔날,박병연,180111-1301827,213-88-01490,"부산광역시 서구 원양로 1 에이동 ,",051-710-6113,35.05,129.01
"신선, 냉동 및 기타 수산물 도매업",주식회사 아토무역,윤성웅,180111-1020790,534-86-00394,부산광역시 서구 원양로 310,512563100,35.08,129.01
"신선, 냉동 및 기타 수산물 도매업",어업회사법인한울주식회사,최희종,191211-0032436,805-88-01246,경상남도 통영시 미우지해안로 63,556495917,34.83,128.4
"신선, 냉동 및 기타 수산물 도매업",주식회사 엠디에스,이동재,110111-3338228,101-86-19015,경기도 남양주시 화도읍 경춘로지현1,031-575-4023,37.66,127.33
"신선, 냉동 및 기타 수산물 도매업",주식회사 엠씨엔케이,어기석,134811-0653205,390-81-02327,경기도 화성시 향남읍 행정서로 32 지하1,031-8059-4477,37.13,126.92
"신선, 냉동 및 기타 수산물 도매업",주식회사 예울에프씨,김상철,110111-4330710,105-87-43566,서울특별시 서대문구 연희로 28 303,1599-0074,37.56,126.93
"신선, 냉동 및 기타 수산물 도매업",주식회사 월드수산,임은희,144711-0027707,432-87-00964,강원도 속초시 동해대로 4170,335223210,38.19,128.58
"신선, 냉동 및 기타 수산물 도매업",윈윈수산식품 주식회사,정두영,110111-2709412,214-87-28229,서울특별시 서초구 논현로 83 A-1111,02-476-8801,37.48,127.04
"신선, 냉동 및 기타 수산물 도매업",(주) 유영글로벌 정보 더보기,김영인,180111-1128958,375-87-00813,서울특별시 서초구 반포대로 4,02-563-1007,37.48,127.01
"신선, 냉동 및 기타 수산물 도매업",주식회사 이앤케이,송연실,180111-1024867,816-81-00442,부산광역시 서구 원양로 35 도매장동,051-220-8222,35.06,129.01
"신선, 냉동 및 기타 수산물 도매업",이엘물산(주),이원호,180111-1061596,526-81-00516,부산광역시 서구 원양로 125,051)717-0120,35.06,129.01
"신선, 냉동 및 기타 수산물 도매업",(주)장가유통,장해연,180111-0591164,603-81-65193,부산광역시 사하구 을숙도대로 748,051-253-1556,35.09,128.99
"신선, 냉동 및 기타 수산물 도매업",(주)재우통상,지형곤,180111-1245158,176-81-01552,부산광역시 사하구 괴정로 40,051-463-9743,35.1,128.97
"신선, 냉동 및 기타 수산물 도매업",주식회사 제이와이제이,김영인,180111-0890269,606-86-51499,부산광역시 강서구 녹산산단382,051-317-0500,35.09,128.85
"신선, 냉동 및 기타 수산물 도매업",제주광어주식회사,한용옥,220111-0073684,616-81-75436,제주특별자치도 서귀포시 표선면 표선당포로 7,647879696,33.33,126.84
"신선, 냉동 및 기타 수산물 도매업",주식회사 진보종합상사,"이정우, 박수성",180111-0668880,607-81-89106,부산광역시 동래구 온천천로 561,051-759-5884,35.19,129.11
"신선, 냉동 및 기타 수산물 도매업",주식회사청해수산,박선봉,120111-0640971,121-86-22299,인천광역시 중구 축항대로 86,032-884-0495,37.45,126.61
"신선, 냉동 및 기타 수산물 도매업",케이와이푸드넷(주),안민주,110111-0603301,215-81-00125,경기도 성남시 중원구 사기막골로 121,031-746-3852,37.44,127.18
"신선, 냉동 및 기타 수산물 도매업",(주)코루스인터내셔날,하인규,180111-1294296,629-88-01787,부산광역시 중구 광복로 97,051-255-1670,35.1,129.03
"신선, 냉동 및 기타 수산물 도매업",주식회사 티와이월드,이상조,180111-0725086,603-81-75390,부산광역시 사하구 감천항로 24,517126304,35.09,129
"신선, 냉동 및 기타 수산물 도매업",유한회사 퍼시픽코스트 정보 더보기,김춘화,180114-0031510,450-86-02546,"부산광역시 해운대구 좌동로 29 ,",517170577,35.17,129.17
"신선, 냉동 및 기타 수산물 도매업",(주)푸드야식품,장준호,121111-0146548,130-86-22124,경기도 용인시 처인구 모현읍 포은대로 896 푸드야식품,313338140,37.33,127.15
"신선, 냉동 및 기타 수산물 도매업",주식회사 하이푸드,하남주,210111-0109530,598-81-00184,전북특별자치도 전주시 덕진구 완주로 47,063-271-0603,35.87,127.15
"신선, 냉동 및 기타 수산물 도매업",한라에스앤에프 주식회사,이병철,220111-0046970,616-81-47134,제주특별자치도 제주시 원남6,064-721-6441,33.5,126.53
"신선, 냉동 및 기타 수산물 도매업",주식회사 한창마린,최승환,110111-6244795,692-87-00606,부산광역시 해운대구 센텀3,033-636-2532,35.18,129.12
"신선, 냉동 및 기타 수산물 도매업",(주)해금수산,김현중,230111-0295111,694-88-00991,부산광역시 서구 원양로 35,051-245-4715,35.06,129.01
"신선, 냉동 및 기타 수산물 도매업",주식회사 해문인터네셔널,김성,120111-0708050,121-86-33608,인천광역시 중구 서해대로 94,010-7615-2235,37.45,126.62
"신선, 냉동 및 기타 수산물 도매업",해성트레이딩 주식회사,신민성,110111-7644887,660-88-01885,서울특별시 강동구 양재대로 1393,02)408-2432,37.53,127.14
"신선, 냉동 및 기타 수산물 도매업",주식회사 해원종합상사,강병우,180111-0927111,603-81-88430,부산광역시 서구 원양로 67,552418020,35.06,129.01
"신선, 냉동 및 기타 수산물 도매업",행복한광어영어조합법인,오기수,224171-0005653,616-81-70576,제주특별자치도 서귀포시 표선면 민속해안로 105,647871877,33.31,126.81
"신선, 냉동 및 기타 수산물 도매업",호아글로벌 주식회사,박학용,284211-0103524,701-86-02110,경기도 구리시 동구릉로 136,031-554-3150,37.62,127.14
기타 신선식품 및 단순 가공식품 도매업,주식회사 골드스타,이인철,144711-0030792,855-88-01561,강원도 동해시 공단6,070-4438-3697,37.49,129.11
기타 신선식품 및 단순 가공식품 도매업,농업회사법인 (주) 광성유통,"장덕미, 최관열",135511-0216363,140-81-46813,경기도 시흥시 찬우물2,031-313-0431,37.35,126.74
기타 신선식품 및 단순 가공식품 도매업,농업회사법인주식회사영림유통,이한열,110111-4734805,119-86-49257,경기도 안양시 만안구 삼막로 24,031-472-6888,37.42,126.91
기타 신선식품 및 단순 가공식품 도매업,농업회사법인 (주)한스팜,한만응,131211-0046075,428-81-00702,경기도 여주시 삼교3,031-8087-7896,37.23,127.66
기타 신선식품 및 단순 가공식품 도매업,다봄푸드 주식회사,신재민,284111-0276018,383-81-02561,경기도 광주시 장지9,031-762-3053,37.48,127.13
기타 신선식품 및 단순 가공식품 도매업,주식회사심인유통,"김쌍섭, 최영준",131111-0362358,408-86-07763,광주광역시 북구 하서로 322,062-576-9990,35.22,126.89
기타 신선식품 및 단순 가공식품 도매업,심플로트사우스,메건벨크스완,110114-0266658,457-87-01910,서울특별시 강남구 남부순환로 2645,02-561-4787,37.49,127.04
기타 신선식품 및 단순 가공식품 도매업,(주) 중흥통상,최진섭,180111-1137511,352-81-01063,부산광역시 영도구 해양로 33,051-460-7210,35.1,129.06
기타 신선식품 및 단순 가공식품 도매업,푸드팡 주식회사,공경율,180111-1064441,480-88-00669,부산광역시 금정구 공단로 60 B동 전층,070-7728-2872,35.22,129.11
기타 신선식품 및 단순 가공식품 도매업,(주)피시원,서규열,135511-0174040,140-81-17832,경기도 시흥시 수인로 3108,313140010,37.41,126.83
